STARLINK-34939          
1 65183U 25175K   26204.15898186  .00019253  00000+0  59703-3 0  9999
2 65183  97.2867  74.0572 0001639 105.7309 254.4115 15.33451896 53019
