[
  {
    "OBJECT_NAME": "STARLINK-34939",
    "OBJECT_ID": "2025-175K",
    "EPOCH": "2026-07-23T03:48:56.031840",
    "MEAN_MOTION": 15.33451896,
    "ECCENTRICITY": 0.000164,
    "INCLINATION": 97.2867,
    "RA_OF_ASC_NODE": 74.0572,
    "ARG_OF_PERICENTER": 105.7309,
    "MEAN_ANOMALY": 254.4115,
    "EPHEMERIS_TYPE": 0,
    "CLASSIFICATION_TYPE": "U",
    "NORAD_CAT_ID": 65183,
    "ELEMENT_SET_NO": 999,
    "REV_AT_EPOCH": 5301,
    "BSTAR": 0.00059703,
    "MEAN_MOTION_DOT": 0.00019253,
    "MEAN_MOTION_DDOT": 0
  }
]
